#dP2018 10 11  0  0  0.00000000      96 __u+U IGS08 FIT  IAC
## 2022 345600.00000000   900.00000000 58402 0.0000000000000
+   92   C01C02C03C04C05C06C07C08C09C10C11C12C13C14E01E02E03
+        E04E05E07E08E09E11E12E14E18E19E21E24E25E26E27E30E31
+        G01G02G03G05G06G07G08G09G10G11G12G13G14G15G16G17G18
+        G19G20G21G22G23G24G25G26G27G28G29G30G31G32J01J02J03
+        J07R01R02R03R04R05R07R08R09R10R11R13R14R15R16R17R18
+        R19R20R21R22R23R24R26  0  0  0  0  0  0  0  0  0  0
++        11 11 12 12  0  8  8  8  7  8  8  8  8  7  7  7  7
++         7  7  7  7  7  7  7  7  7  7  8  7  7  7  7  7  6
++         3  3  3  3  3  3  3  3  3  3  3  3  3  3  3  3  3
++         3  3  3  3  3  3  3  3  3  3  3  3  3  3  9 11 11
++        16  5  5  5  5  5  5  5  5  5  5  5  5  5  5  5  5
++         5  5  5  5  5  5  8  0  0  0  0  0  0  0  0  0  0
%c M  cc GPS ccc cccc cccc cccc cccc ccccc ccccc ccccc ccccc
%c cc cc ccc ccc cccc cccc cccc cccc ccccc ccccc ccccc ccccc
%f  1.2500000  1.025000000  0.00000000000  0.000000000000000
%f  0.0000000  0.000000000  0.00000000000  0.000000000000000
%i    0    0    0    0      0      0      0      0         0
%i    0    0    0    0      0      0      0      0         0
/* INFORMATION & ANALYSIS CENTER (IAC)            FINAL DATA
/* S/V CLOCKS ARE ALIGNED TO GPS & GLONASS TIME RESPECTIVELY
/* USING THE BROADCAST EPHEMERIS                            
/* PCV:IGS14_2022 OL/AL:FES2004  NONE     YN ORB:CoN CLK:CoN
*  2018 10 11 15 30  0.00000000
PC01 -32315.449711  27103.863968    414.816628     60.594968
PC02   4378.150461  41915.190167   -925.107649    -18.115911
PC03 -14682.980871  39496.215672    -17.184857   -273.931350
PC04 -39658.694829  14398.732867    122.889154    -81.461770
PC05  21810.516631  36056.386795  -1081.012267 999999.999999
PC06 -19469.253750  37148.017452  -1456.755950    371.150769
PC07  -7354.752374  28819.249525  30162.610228    -89.028408
PC08 -22892.135881  19959.805902 -29310.099109    559.149227
PC09  -8960.431785  38371.451434  14747.830570    189.448522
PC10   5178.014760  35427.622123  22713.281985   -145.075266
PC11 -23480.381997   4519.007495  14513.482903     55.752319
PC12 -10746.864790 -11257.171567  23225.433922    144.761095
PC13  -4923.283916  23720.466616 -34534.841790   -320.627243
PC14 -16146.673325  -4727.318326 -22218.774822    580.128498
PE01 -19514.391961    725.080567  22250.167478   -453.832909
PE02  19494.667858   -748.338457 -22252.784264     30.791297
PE03  18270.370965 -12134.548058  19870.276566    -87.049069
PE04 -11220.873236  27028.104052  -4448.859897   -135.543102
PE05  14651.565751   9934.860396  23723.906519    178.763909
PE07  -2473.181113 -26121.006063 -13686.910445    -54.559947
PE08  10928.244594 -27141.274144   4435.863078   6485.099411
PE09   2617.577113  26099.747126  13736.783141   6650.930623
PE11   6356.727347  15321.737786 -24522.872553   5694.424041
PE12 -15944.185143  16807.175705 -18420.352699   5248.962854
PE14 -15674.057939  22013.295277  -3944.143428   6506.285389
PE18  24271.610892 -15051.795955  -8900.092289   5840.576623
PE19 -18255.851010  10183.737173 -20954.902414    -11.498286
PE21 -23133.433835 -16842.804566   7558.609975   -498.975221
PE24  13279.386474  24179.615108  10717.713734   6447.010275
PE25  23127.214956  16884.976142  -7506.839197   2016.392405
PE26 -24299.059986  -5106.238751  16124.160310   5376.845716
PE27 -12907.015181 -24096.997337 -11336.225500    613.235044
PE30   4429.064054 -17651.354560 -23344.547340   5441.520641
PE31  -4880.272504  17229.685015  23585.586719   1012.520720
PG01  17089.570076  13466.987411 -15604.205691    -99.115841
PG02   5211.121117 -15097.590028  21775.464271    -27.048364
PG03  13635.018885  21751.211350   6913.737054    147.625920
PG05  -1370.873221 -23945.284568  11062.667542     -1.078702
PG06  20426.135098  -7483.352281  15281.870920    351.174445
PG07  25979.891255   6221.757335   2533.957879    108.608568
PG08  -1073.679232  20287.519345 -16975.855846   -118.225086
PG09  16003.066412   3572.198347  20858.387998    501.141800
PG10 -14383.622869   4891.967356 -21748.103725    175.486167
PG11  11769.431414  13176.642267 -20340.561021   -710.804599
PG12  -9626.988013 -24701.502913   2599.347266    300.544689
PG13   9582.531215 -21427.413997 -12519.300458    -87.299197
PG14 -18648.914751  18718.510216  -1157.108387    -96.784784
PG15  -4727.772310 -18249.986263 -18793.552787   -343.382357
PG16  -2150.768386  22823.003380  12881.409792      4.740135
PG17  20575.831280 -12809.053334 -10320.142926    -45.404955
PG18   7509.557546  15617.467294 -20644.735415     67.095244
PG19  19286.842991 -18319.222677  -1499.374441   -394.523975
PG20 -18363.561563  -4787.674506 -18747.579133    517.133182
PG21 -26381.533883  -2637.750140     35.546267   -322.975162
PG22  10747.071132  24291.960717   -669.526048   -543.931917
PG23  10369.034255  12077.157813  21528.263503   -208.938656
PG24 -13037.949069 -14695.857390 -18133.953266    -56.617351
PG25 -16138.337307 -16173.066586  13557.892704   -660.188542
PG26  -8239.091335  16082.722614  19413.065913      6.234895
PG27 -10363.700018  22654.802066  -8902.424814     -4.007914
PG28  14515.677009  -1409.918267 -21572.423562    749.192794
PG29 -14728.001580  -5004.517281  21504.938615    359.082974
PG30  25234.269077  -1159.346987  -8462.313413     11.687108
PG31 -18994.236372   8435.589315  16810.219913     87.475011
PG32 -20035.775148  14372.095461  -9709.118477   -396.326907
PJ01 -16888.067331  30413.240992 -19226.951121   -315.985613
PJ02 -27085.789427  20130.934116  29974.104705      0.174861
PJ03 -33041.379803  25789.948724   9230.016335      0.243847
PJ07 -25401.530904  33662.102730    -21.080558    149.428790
PR01   6836.781361 -22223.537977  10469.724374     33.304767
PR02  -2229.508497 -23599.005038  -9456.038716    333.968075
PR03  -9354.718953 -10016.675363 -21488.058156    145.657282
PR04 -10878.750569   9924.926620 -20812.181165    279.529684
PR05  -6121.038504  23250.782543  -8486.141109     12.826827
PR07   9507.287473   9457.226266  21720.736958    -49.083191
PR08  10994.871376  -9175.235210  21157.015926     20.968224
PR09  13823.038631  17466.634858  12513.646250     32.916755
PR10  21388.803201  13489.011744  -3694.012677     33.327270
PR11  17097.823208   1132.440507 -18893.797092    -43.579663
PR13 -13664.459078 -17073.162904 -13133.498108    -15.562781
PR14 -21446.993991 -13313.453263   3623.475954     31.877349
PR15 -19259.376333  -4802.640232  16094.179071    -17.536865
PR16  -3544.871598  10821.557875  22802.951062    103.701320
PR17 -17316.795088  -1616.917903  18684.443563    171.385100
PR18 -23629.111582   8522.676794   4296.927157     25.943174
PR19 -17392.926774  13667.240696 -12714.902922    -60.515568
PR20    599.096538  10999.059418 -22999.712451   -355.255777
PR21  17550.112798   1302.220005 -18452.074207     -8.297459
PR22  23619.599451  -9598.011562  -1959.672135    -64.998244
PR23  13689.222645 -14172.904618  16184.306329    183.717132
PR24  -2064.524740 -10534.659781  23112.043123   -172.427018
PR26   -767.029375  11611.363043 -22693.337511     23.671595
EOF
